*******************************************************************************
Ephemeris / WWW_USER Mon Jul 15 19:11:50 2024 Pasadena, USA      / Horizons    
*******************************************************************************
Target body name: (2018 RY7)                      {source: JPL#20}
Center body name: Earth (399)                     {source: DE441}
Center-site name: Gemini South Obs., Cerro Pachon
*******************************************************************************
Start time      : A.D. 2018-Oct-04 22:54:00.0000 UT      
Stop  time      : A.D. 2018-Oct-05 10:08:00.0000 UT      
Step-size       : 1 minutes
*******************************************************************************
Target pole/equ : undefined
Target radii    : undefined                                                    
Center geodetic : 289.2634, -30.2406227, 2.71233  {E-lon(deg),Lat(deg),Alt(km)}
Center cylindric: 289.2634,5517.21435,-3194.81213 {E-lon(deg),Dxy(km),Dz(km)}
Center pole/equ : ITRF93                          {East-longitude positive}
Center radii    : 6378.137, 6378.137, 6356.752 km {Equator_a, b, pole_c}       
Target primary  : Sun
Vis. interferer : MOON (R_eq= 1737.400) km        {source: DE441}
Rel. light bend : Sun                             {source: DE441}
Rel. lght bnd GM: 1.3271E+11 km^3/s^2                                          
Small-body perts: Yes                             {source: SB441-N16}
Atmos refraction: NO (AIRLESS)
RA format       : HMS
Time format     : CAL 
Calendar mode   : Mixed Julian/Gregorian
RTS-only print  : NO       
EOP file        : eop.240715.p241008                                           
EOP coverage    : DATA-BASED 1962-JAN-20 TO 2024-JUL-15. PREDICTS-> 2024-OCT-07
Units conversion: 1 au= 149597870.700 km, c= 299792.458 km/s, 1 day= 86400.0 s 
Table cut-offs 1: Elevation (-90.0deg=NO ),Airmass (>38.000=NO), Daylight (YES)
Table cut-offs 2: Solar elongation (  0.0,180.0=NO ),Local Hour Angle( 0.0=NO )
Table cut-offs 3: RA/DEC angular rate (     0.0=NO )                           
*******************************************************************************
Initial IAU76/J2000 heliocentric ecliptic osculating elements (au, days, deg.):
  EPOCH=  2458422.5 ! 2018-Oct-31.00 (TDB)         Residual RMS= .22459        
   EC= .1470549687381346   QR= .8667733479166969   TP= 2458516.8896767548      
   OM= 2.838668085760325   W=  136.9006026425241   IN= 13.35135890147074       
  Equivalent ICRF heliocentric cartesian coordinates (au, au/d):
   X= 8.791791513870114E-01  Y= 4.508422091141234E-01  Z= 3.244113040133835E-01
  VX=-1.085418916943652E-02 VY= 1.006005810562689E-02 VZ= 7.673980932675997E-03
Asteroid physical parameters (km, seconds, rotational period in hours):        
   GM= n.a.                RAD= n.a.               ROTPER= n.a.                
   H= 24.4                 G= .150                 B-V= n.a.                   
                           ALBEDO= n.a.            STYP= n.a.                  
*******************************************************************************
 Date__(UT)__HR:MN     R.A._________(ICRF)_________DEC
******************************************************
$$SOE
 2018-Oct-05 05:03     23 06 24.645714 +13 35 22.06504
 2018-Oct-05 05:04     23 06 24.303277 +13 35 25.17618
 2018-Oct-05 05:05     23 06 23.960891 +13 35 28.28698
 2018-Oct-05 05:06     23 06 23.618558 +13 35 31.39745
 2018-Oct-05 05:07     23 06 23.276278 +13 35 34.50757
 2018-Oct-05 05:08     23 06 22.934051 +13 35 37.61737
 2018-Oct-05 05:09     23 06 22.591878 +13 35 40.72682
 2018-Oct-05 05:10     23 06 22.249759 +13 35 43.83595
 2018-Oct-05 05:11     23 06 21.907693 +13 35 46.94474
 2018-Oct-05 05:12     23 06 21.565683 +13 35 50.05320
 2018-Oct-05 05:13     23 06 21.223727 +13 35 53.16132
 2018-Oct-05 05:14     23 06 20.881827 +13 35 56.26912
 2018-Oct-05 05:15     23 06 20.539982 +13 35 59.37658
 2018-Oct-05 05:16     23 06 20.198193 +13 36 02.48372
 2018-Oct-05 05:17     23 06 19.856460 +13 36 05.59053
 2018-Oct-05 05:18     23 06 19.514785 +13 36 08.69701
 2018-Oct-05 05:19     23 06 19.173166 +13 36 11.80316
 2018-Oct-05 05:20     23 06 18.831604 +13 36 14.90899
 2018-Oct-05 05:21     23 06 18.490100 +13 36 18.01449
 2018-Oct-05 05:22     23 06 18.148654 +13 36 21.11966
 2018-Oct-05 05:23     23 06 17.807267 +13 36 24.22452
 2018-Oct-05 05:24     23 06 17.465938 +13 36 27.32905
 2018-Oct-05 05:25     23 06 17.124668 +13 36 30.43325
 2018-Oct-05 05:26     23 06 16.783458 +13 36 33.53714
 2018-Oct-05 05:27     23 06 16.442307 +13 36 36.64070
 2018-Oct-05 05:28     23 06 16.101216 +13 36 39.74395
 2018-Oct-05 05:29     23 06 15.760186 +13 36 42.84688
 2018-Oct-05 05:30     23 06 15.419216 +13 36 45.94948
 2018-Oct-05 05:31     23 06 15.078308 +13 36 49.05178
 2018-Oct-05 05:32     23 06 14.737460 +13 36 52.15375
 2018-Oct-05 05:33     23 06 14.396674 +13 36 55.25541
 2018-Oct-05 05:34     23 06 14.055951 +13 36 58.35676
 2018-Oct-05 05:35     23 06 13.715289 +13 37 01.45779
 2018-Oct-05 05:36     23 06 13.374690 +13 37 04.55851
 2018-Oct-05 05:37     23 06 13.034154 +13 37 07.65891
 2018-Oct-05 05:38     23 06 12.693682 +13 37 10.75901
 2018-Oct-05 05:39     23 06 12.353273 +13 37 13.85880
 2018-Oct-05 05:40     23 06 12.012928 +13 37 16.95827
 2018-Oct-05 05:41     23 06 11.672647 +13 37 20.05744
 2018-Oct-05 05:42     23 06 11.332430 +13 37 23.15630
 2018-Oct-05 05:43     23 06 10.992279 +13 37 26.25485
 2018-Oct-05 05:44     23 06 10.652192 +13 37 29.35310
 2018-Oct-05 05:45     23 06 10.312171 +13 37 32.45105
 2018-Oct-05 05:46     23 06 09.972216 +13 37 35.54869
 2018-Oct-05 05:47     23 06 09.632327 +13 37 38.64602
 2018-Oct-05 05:48     23 06 09.292504 +13 37 41.74306
 2018-Oct-05 05:49     23 06 08.952748 +13 37 44.83979
 2018-Oct-05 05:50     23 06 08.613059 +13 37 47.93623
 2018-Oct-05 05:51     23 06 08.273437 +13 37 51.03236
 2018-Oct-05 05:52     23 06 07.933883 +13 37 54.12820
 2018-Oct-05 05:53     23 06 07.594397 +13 37 57.22374
 2018-Oct-05 05:54     23 06 07.254979 +13 38 00.31898
 2018-Oct-05 05:55     23 06 06.915629 +13 38 03.41393
 2018-Oct-05 05:56     23 06 06.576349 +13 38 06.50858
 2018-Oct-05 05:57     23 06 06.237137 +13 38 09.60294
 2018-Oct-05 05:58     23 06 05.897995 +13 38 12.69701
 2018-Oct-05 05:59     23 06 05.558922 +13 38 15.79079
 2018-Oct-05 06:00     23 06 05.219920 +13 38 18.88428
 2018-Oct-05 06:01     23 06 04.880987 +13 38 21.97748
 2018-Oct-05 06:02     23 06 04.542125 +13 38 25.07039
 2018-Oct-05 06:03     23 06 04.203335 +13 38 28.16301
 2018-Oct-05 06:04     23 06 03.864615 +13 38 31.25534
 2018-Oct-05 06:05     23 06 03.525966 +13 38 34.34739
 2018-Oct-05 06:06     23 06 03.187390 +13 38 37.43916
 2018-Oct-05 06:07     23 06 02.848885 +13 38 40.53064
 2018-Oct-05 06:08     23 06 02.510452 +13 38 43.62185
 2018-Oct-05 06:09     23 06 02.172092 +13 38 46.71277
 2018-Oct-05 06:10     23 06 01.833805 +13 38 49.80341
 2018-Oct-05 06:11     23 06 01.495591 +13 38 52.89377
 2018-Oct-05 06:12     23 06 01.157450 +13 38 55.98385
 2018-Oct-05 06:13     23 06 00.819383 +13 38 59.07366
 2018-Oct-05 06:14     23 06 00.481390 +13 39 02.16319
 2018-Oct-05 06:15     23 06 00.143471 +13 39 05.25244
 2018-Oct-05 06:16     23 05 59.805627 +13 39 08.34142
 2018-Oct-05 06:17     23 05 59.467857 +13 39 11.43013
 2018-Oct-05 06:18     23 05 59.130162 +13 39 14.51857
 2018-Oct-05 06:19     23 05 58.792543 +13 39 17.60674
 2018-Oct-05 06:20     23 05 58.454999 +13 39 20.69464
 2018-Oct-05 06:21     23 05 58.117530 +13 39 23.78226
 2018-Oct-05 06:22     23 05 57.780138 +13 39 26.86963
 2018-Oct-05 06:23     23 05 57.442822 +13 39 29.95672
 2018-Oct-05 06:24     23 05 57.105583 +13 39 33.04355
 2018-Oct-05 06:25     23 05 56.768420 +13 39 36.13012
 2018-Oct-05 06:26     23 05 56.431335 +13 39 39.21642
 2018-Oct-05 06:27     23 05 56.094327 +13 39 42.30247
 2018-Oct-05 06:28     23 05 55.757396 +13 39 45.38825
 2018-Oct-05 06:29     23 05 55.420543 +13 39 48.47377
 2018-Oct-05 06:30     23 05 55.083769 +13 39 51.55904
 2018-Oct-05 06:31     23 05 54.747072 +13 39 54.64404
 2018-Oct-05 06:32     23 05 54.410454 +13 39 57.72879
 2018-Oct-05 06:33     23 05 54.073915 +13 40 00.81329
 2018-Oct-05 06:34     23 05 53.737455 +13 40 03.89753
 2018-Oct-05 06:35     23 05 53.401075 +13 40 06.98152
 2018-Oct-05 06:36     23 05 53.064774 +13 40 10.06526
 2018-Oct-05 06:37     23 05 52.728552 +13 40 13.14874
 2018-Oct-05 06:38     23 05 52.392411 +13 40 16.23198
 2018-Oct-05 06:39     23 05 52.056350 +13 40 19.31497
 2018-Oct-05 06:40     23 05 51.720369 +13 40 22.39772
 2018-Oct-05 06:41     23 05 51.384469 +13 40 25.48021
 2018-Oct-05 06:42     23 05 51.048651 +13 40 28.56247
 2018-Oct-05 06:43     23 05 50.712913 +13 40 31.64448
 2018-Oct-05 06:44     23 05 50.377256 +13 40 34.72625
 2018-Oct-05 06:45     23 05 50.041682 +13 40 37.80777
 2018-Oct-05 06:46     23 05 49.706189 +13 40 40.88906
 2018-Oct-05 06:47     23 05 49.370778 +13 40 43.97011
 2018-Oct-05 06:48     23 05 49.035450 +13 40 47.05092
 2018-Oct-05 06:49     23 05 48.700204 +13 40 50.13149
 2018-Oct-05 06:50     23 05 48.365040 +13 40 53.21183
 2018-Oct-05 06:51     23 05 48.029960 +13 40 56.29194
 2018-Oct-05 06:52     23 05 47.694963 +13 40 59.37181
 2018-Oct-05 06:53     23 05 47.360049 +13 41 02.45146
 2018-Oct-05 06:54     23 05 47.025219 +13 41 05.53087
 2018-Oct-05 06:55     23 05 46.690473 +13 41 08.61005
 2018-Oct-05 06:56     23 05 46.355811 +13 41 11.68901
 2018-Oct-05 06:57     23 05 46.021233 +13 41 14.76774
 2018-Oct-05 06:58     23 05 45.686739 +13 41 17.84624
 2018-Oct-05 06:59     23 05 45.352330 +13 41 20.92452
 2018-Oct-05 07:00     23 05 45.018006 +13 41 24.00258
 2018-Oct-05 07:01     23 05 44.683767 +13 41 27.08041
 2018-Oct-05 07:02     23 05 44.349613 +13 41 30.15803
 2018-Oct-05 07:03     23 05 44.015545 +13 41 33.23542
 2018-Oct-05 07:04     23 05 43.681562 +13 41 36.31260
 2018-Oct-05 07:05     23 05 43.347665 +13 41 39.38956
